STARLINK-37165          
1 68287U 26055AB  26093.58336806 -.00095469  00000+0 -48402-3 0  9993
2 68287  53.1592 212.3099 0001401  86.6579 208.6177 15.80937927  3635
STARLINK-37016          
1 68288U 26055AC  26093.58336806 -.00103030  00000+0 -52227-3 0  9998
2 68288  53.1591 212.3280 0001581  62.5013 224.1816 15.80971168  3630
STARLINK-37010          
1 68289U 26055AD  26093.58336806 -.00097253  00000+0 -49331-3 0  9990
2 68289  53.1593 212.3010 0001217  86.7589 212.7955 15.80934838  3636
STARLINK-37151          
1 68290U 26055AE  26093.58336806 -.00064659  00000+0 -32604-3 0  9991
2 68290  53.1593 212.2919 0001084  77.5305 226.3066 15.80903873  3630
STRIX-6                 
1 68291U 26056A   26093.11013841  .00008302  00000+0  68400-3 0  9997
2 68291  50.2841 344.5578 0016539 316.2429  43.7208 14.99677076  2007
ELECTRON KICK STAGE R/B 
1 68293U 26056C   26093.41548549  .00123667  00000+0  19096-2 0  9998
2 68293  50.2919 339.0510 0153551  66.3908 295.3097 15.40859303  2116
STARLINK-37107          
1 68294U 26057A   26093.58336806 -.01392040  00000+0 -61322-2 0  9994
2 68294  97.2812 217.1545 0001262  68.5897  16.9807 15.87224529  3165
STARLINK-37147          
1 68295U 26057B   26093.58336806 -.01395490  00000+0 -61329-2 0  9994
2 68295  97.2806 217.1555 0001402  65.2113  24.2863 15.87277868  3158
STARLINK-37142          
1 68296U 26057C   26093.58336806 -.01403273  00000+0 -61467-2 0  9997
2 68296  97.2798 217.1605 0001468  59.4749  42.5698 15.87360250  3042
STARLINK-37115          
1 68297U 26057D   26093.58336806 -.01395790  00000+0 -61251-2 0  9993
2 68297  97.2796 217.1580 0001330  66.2908  31.7415 15.87309383  3041
STARLINK-36355          
1 68298U 26057E   26093.58336806 -.01391877  00000+0 -61033-2 0  9994
2 68298  97.2803 217.1566 0001245  69.9933  23.5446 15.87317693  3314
STARLINK-37118          
1 68299U 26057F   26093.58336806 -.01414391  00000+0 -61898-2 0  9991
2 68299  97.2790 217.1635 0001388  62.5329  48.0826 15.87403082  3157
