CCSDS_OMM_VERS = 2.0
CREATION_DATE  = 
ORIGINATOR     = 

OBJECT_NAME    = STARLINK-37165
OBJECT_ID      = 2026-055AB
CENTER_NAME    = EARTH
REF_FRAME      = TEME
TIME_SYSTEM    = UTC
MEAN_ELEMENT_THEORY = SGP/SGP4

EPOCH          = 2026-04-03T14:00:03.000384
MEAN_MOTION    = 15.80937927
ECCENTRICITY   = .00014018
INCLINATION    = 53.1592
RA_OF_ASC_NODE = 212.3099
ARG_OF_PERICENTER = 86.6579
MEAN_ANOMALY   = 208.6177

EPHEMERIS_TYPE = 0
CLASSIFICATION_TYPE = U
NORAD_CAT_ID   = 68287
ELEMENT_SET_NO = 999
REV_AT_EPOCH   = 363
BSTAR          = -.4840201E-3
MEAN_MOTION_DOT = -.95469E-3
MEAN_MOTION_DDOT = 0

CCSDS_OMM_VERS = 2.0
CREATION_DATE  = 
ORIGINATOR     = 

OBJECT_NAME    = STARLINK-37016
OBJECT_ID      = 2026-055AC
CENTER_NAME    = EARTH
REF_FRAME      = TEME
TIME_SYSTEM    = UTC
MEAN_ELEMENT_THEORY = SGP/SGP4

EPOCH          = 2026-04-03T14:00:03.000384
MEAN_MOTION    = 15.80971168
ECCENTRICITY   = .00015817
INCLINATION    = 53.1591
RA_OF_ASC_NODE = 212.3280
ARG_OF_PERICENTER = 62.5013
MEAN_ANOMALY   = 224.1816

EPHEMERIS_TYPE = 0
CLASSIFICATION_TYPE = U
NORAD_CAT_ID   = 68288
ELEMENT_SET_NO = 999
REV_AT_EPOCH   = 363
BSTAR          = -.52226897E-3
MEAN_MOTION_DOT = -.10303E-2
MEAN_MOTION_DDOT = 0

CCSDS_OMM_VERS = 2.0
CREATION_DATE  = 
ORIGINATOR     = 

OBJECT_NAME    = STARLINK-37010
OBJECT_ID      = 2026-055AD
CENTER_NAME    = EARTH
REF_FRAME      = TEME
TIME_SYSTEM    = UTC
MEAN_ELEMENT_THEORY = SGP/SGP4

EPOCH          = 2026-04-03T14:00:03.000384
MEAN_MOTION    = 15.80934838
ECCENTRICITY   = .00012178
INCLINATION    = 53.1593
RA_OF_ASC_NODE = 212.3010
ARG_OF_PERICENTER = 86.7589
MEAN_ANOMALY   = 212.7955

EPHEMERIS_TYPE = 0
CLASSIFICATION_TYPE = U
NORAD_CAT_ID   = 68289
ELEMENT_SET_NO = 999
REV_AT_EPOCH   = 363
BSTAR          = -.49331418E-3
MEAN_MOTION_DOT = -.97253E-3
MEAN_MOTION_DDOT = 0

CCSDS_OMM_VERS = 2.0
CREATION_DATE  = 
ORIGINATOR     = 

OBJECT_NAME    = STARLINK-37151
OBJECT_ID      = 2026-055AE
CENTER_NAME    = EARTH
REF_FRAME      = TEME
TIME_SYSTEM    = UTC
MEAN_ELEMENT_THEORY = SGP/SGP4

EPOCH          = 2026-04-03T14:00:03.000384
MEAN_MOTION    = 15.80903873
ECCENTRICITY   = .00010848
INCLINATION    = 53.1593
RA_OF_ASC_NODE = 212.2919
ARG_OF_PERICENTER = 77.5305
MEAN_ANOMALY   = 226.3066

EPHEMERIS_TYPE = 0
CLASSIFICATION_TYPE = U
NORAD_CAT_ID   = 68290
ELEMENT_SET_NO = 999
REV_AT_EPOCH   = 363
BSTAR          = -.32603622E-3
MEAN_MOTION_DOT = -.64659E-3
MEAN_MOTION_DDOT = 0

CCSDS_OMM_VERS = 2.0
CREATION_DATE  = 
ORIGINATOR     = 

OBJECT_NAME    = STRIX-6
OBJECT_ID      = 2026-056A
CENTER_NAME    = EARTH
REF_FRAME      = TEME
TIME_SYSTEM    = UTC
MEAN_ELEMENT_THEORY = SGP/SGP4

EPOCH          = 2026-04-03T02:38:35.958624
MEAN_MOTION    = 14.99677076
ECCENTRICITY   = .00165395
INCLINATION    = 50.2841
RA_OF_ASC_NODE = 344.5578
ARG_OF_PERICENTER = 316.2429
MEAN_ANOMALY   = 43.7208

EPHEMERIS_TYPE = 0
CLASSIFICATION_TYPE = U
NORAD_CAT_ID   = 68291
ELEMENT_SET_NO = 999
REV_AT_EPOCH   = 200
BSTAR          = .68400167E-3
MEAN_MOTION_DOT = .8302E-4
MEAN_MOTION_DDOT = 0

CCSDS_OMM_VERS = 2.0
CREATION_DATE  = 
ORIGINATOR     = 

OBJECT_NAME    = ELECTRON KICK STAGE R/B
OBJECT_ID      = 2026-056C
CENTER_NAME    = EARTH
REF_FRAME      = TEME
TIME_SYSTEM    = UTC
MEAN_ELEMENT_THEORY = SGP/SGP4

EPOCH          = 2026-04-03T09:58:17.946336
MEAN_MOTION    = 15.40859303
ECCENTRICITY   = .01535517
INCLINATION    = 50.2919
RA_OF_ASC_NODE = 339.0510
ARG_OF_PERICENTER = 66.3908
MEAN_ANOMALY   = 295.3097

EPHEMERIS_TYPE = 0
CLASSIFICATION_TYPE = U
NORAD_CAT_ID   = 68293
ELEMENT_SET_NO = 999
REV_AT_EPOCH   = 211
BSTAR          = .19095611E-2
MEAN_MOTION_DOT = .123667E-2
MEAN_MOTION_DDOT = 0

CCSDS_OMM_VERS = 2.0
CREATION_DATE  = 
ORIGINATOR     = 

OBJECT_NAME    = STARLINK-37107
OBJECT_ID      = 2026-057A
CENTER_NAME    = EARTH
REF_FRAME      = TEME
TIME_SYSTEM    = UTC
MEAN_ELEMENT_THEORY = SGP/SGP4

EPOCH          = 2026-04-03T14:00:03.000384
MEAN_MOTION    = 15.87224529
ECCENTRICITY   = .00012625
INCLINATION    = 97.2812
RA_OF_ASC_NODE = 217.1545
ARG_OF_PERICENTER = 68.5897
MEAN_ANOMALY   = 16.9807

EPHEMERIS_TYPE = 0
CLASSIFICATION_TYPE = U
NORAD_CAT_ID   = 68294
ELEMENT_SET_NO = 999
REV_AT_EPOCH   = 316
BSTAR          = -.61322466E-2
MEAN_MOTION_DOT = -.139204E-1
MEAN_MOTION_DDOT = 0

CCSDS_OMM_VERS = 2.0
CREATION_DATE  = 
ORIGINATOR     = 

OBJECT_NAME    = STARLINK-37147
OBJECT_ID      = 2026-057B
CENTER_NAME    = EARTH
REF_FRAME      = TEME
TIME_SYSTEM    = UTC
MEAN_ELEMENT_THEORY = SGP/SGP4

EPOCH          = 2026-04-03T14:00:03.000384
MEAN_MOTION    = 15.87277868
ECCENTRICITY   = .00014027
INCLINATION    = 97.2806
RA_OF_ASC_NODE = 217.1555
ARG_OF_PERICENTER = 65.2113
MEAN_ANOMALY   = 24.2863

EPHEMERIS_TYPE = 0
CLASSIFICATION_TYPE = U
NORAD_CAT_ID   = 68295
ELEMENT_SET_NO = 999
REV_AT_EPOCH   = 315
BSTAR          = -.61329002E-2
MEAN_MOTION_DOT = -.139549E-1
MEAN_MOTION_DDOT = 0

CCSDS_OMM_VERS = 2.0
CREATION_DATE  = 
ORIGINATOR     = 

OBJECT_NAME    = STARLINK-37142
OBJECT_ID      = 2026-057C
CENTER_NAME    = EARTH
REF_FRAME      = TEME
TIME_SYSTEM    = UTC
MEAN_ELEMENT_THEORY = SGP/SGP4

EPOCH          = 2026-04-03T14:00:03.000384
MEAN_MOTION    = 15.87360250
ECCENTRICITY   = .00014683
INCLINATION    = 97.2798
RA_OF_ASC_NODE = 217.1605
ARG_OF_PERICENTER = 59.4749
MEAN_ANOMALY   = 42.5698

EPHEMERIS_TYPE = 0
CLASSIFICATION_TYPE = U
NORAD_CAT_ID   = 68296
ELEMENT_SET_NO = 999
REV_AT_EPOCH   = 304
BSTAR          = -.61467203E-2
MEAN_MOTION_DOT = -.1403273E-1
MEAN_MOTION_DDOT = 0

CCSDS_OMM_VERS = 2.0
CREATION_DATE  = 
ORIGINATOR     = 

OBJECT_NAME    = STARLINK-37115
OBJECT_ID      = 2026-057D
CENTER_NAME    = EARTH
REF_FRAME      = TEME
TIME_SYSTEM    = UTC
MEAN_ELEMENT_THEORY = SGP/SGP4

EPOCH          = 2026-04-03T14:00:03.000384
MEAN_MOTION    = 15.87309383
ECCENTRICITY   = .00013304
INCLINATION    = 97.2796
RA_OF_ASC_NODE = 217.1580
ARG_OF_PERICENTER = 66.2908
MEAN_ANOMALY   = 31.7415

EPHEMERIS_TYPE = 0
CLASSIFICATION_TYPE = U
NORAD_CAT_ID   = 68297
ELEMENT_SET_NO = 999
REV_AT_EPOCH   = 304
BSTAR          = -.61251321E-2
MEAN_MOTION_DOT = -.139579E-1
MEAN_MOTION_DDOT = 0

CCSDS_OMM_VERS = 2.0
CREATION_DATE  = 
ORIGINATOR     = 

OBJECT_NAME    = STARLINK-36355
OBJECT_ID      = 2026-057E
CENTER_NAME    = EARTH
REF_FRAME      = TEME
TIME_SYSTEM    = UTC
MEAN_ELEMENT_THEORY = SGP/SGP4

EPOCH          = 2026-04-03T14:00:03.000384
MEAN_MOTION    = 15.87317693
ECCENTRICITY   = .0001245
INCLINATION    = 97.2803
RA_OF_ASC_NODE = 217.1566
ARG_OF_PERICENTER = 69.9933
MEAN_ANOMALY   = 23.5446

EPHEMERIS_TYPE = 0
CLASSIFICATION_TYPE = U
NORAD_CAT_ID   = 68298
ELEMENT_SET_NO = 999
REV_AT_EPOCH   = 331
BSTAR          = -.61032857E-2
MEAN_MOTION_DOT = -.1391877E-1
MEAN_MOTION_DDOT = 0

CCSDS_OMM_VERS = 2.0
CREATION_DATE  = 
ORIGINATOR     = 

OBJECT_NAME    = STARLINK-37118
OBJECT_ID      = 2026-057F
CENTER_NAME    = EARTH
REF_FRAME      = TEME
TIME_SYSTEM    = UTC
MEAN_ELEMENT_THEORY = SGP/SGP4

EPOCH          = 2026-04-03T14:00:03.000384
MEAN_MOTION    = 15.87403082
ECCENTRICITY   = .00013887
INCLINATION    = 97.2790
RA_OF_ASC_NODE = 217.1635
ARG_OF_PERICENTER = 62.5329
MEAN_ANOMALY   = 48.0826

EPHEMERIS_TYPE = 0
CLASSIFICATION_TYPE = U
NORAD_CAT_ID   = 68299
ELEMENT_SET_NO = 999
REV_AT_EPOCH   = 315
BSTAR          = -.61897958E-2
MEAN_MOTION_DOT = -.1414391E-1
MEAN_MOTION_DDOT = 0

